{
  "type": "FeatureCollection",
  "properties": {
    "source": "OpenStreetMap (Overpass API), ODbL"
  },
  "features": [
    {
      "type": "Feature",
      "geometry": {
        "type": "Polygon",
        "coordinates": [
          [
            [
              -4.2895984,
              55.8719979
            ],
            [
              -4.2895777,
              55.8719953
            ],
            [
              -4.289582,
              55.8719848
            ],
            [
              -4.2895005,
              55.8719743
            ],
            [
              -4.2894962,
              55.8719848
            ],
            [
              -4.2894742,
              55.871982
            ],
            [
              -4.2894786,
              55.8719713
            ],
            [
              -4.2893977,
              55.8719608
            ],
            [
              -4.2893934,
              55.8719713
            ],
            [
              -4.2893688,
              55.8719682
            ],
            [
              -4.2893735,
              55.8719568
            ],
            [
              -4.2893575,
              55.8719547
            ],
            [
              -4.289362,
              55.8719438
            ],
            [
              -4.2893803,
              55.8719461
            ],
            [
              -4.2893826,
              55.8719405
            ],
            [
              -4.2893124,
              55.8719309
            ],
            [
              -4.2892449,
              55.8719218
            ],
            [
              -4.2892322,
              55.8719524
            ],
            [
              -4.289253,
              55.8719551
            ],
            [
              -4.2892475,
              55.8719684
            ],
            [
              -4.2892255,
              55.8719655
            ],
            [
              -4.2892217,
              55.8719746
            ],
            [
              -4.2892015,
              55.871972
            ],
            [
              -4.2892055,
              55.8719625
            ],
            [
              -4.289134,
              55.8719531
            ],
            [
              -4.2891302,
              55.8719624
            ],
            [
              -4.2891076,
              55.8719594
            ],
            [
              -4.2891116,
              55.8719498
            ],
            [
              -4.2890441,
              55.871941
            ],
            [
              -4.2890405,
              55.8719497
            ],
            [
              -4.2890183,
              55.8719468
            ],
            [
              -4.2890223,
              55.8719371
            ],
            [
              -4.2889549,
              55.8719283
            ],
            [
              -4.2889508,
              55.871938
            ],
            [
              -4.2889281,
              55.871935
            ],
            [
              -4.2889318,
              55.8719262
            ],
            [
              -4.2888688,
              55.871918
            ],
            [
              -4.2888651,
              55.871927
            ],
            [
              -4.2888448,
              55.8719244
            ],
            [
              -4.2888485,
              55.8719154
            ],
            [
              -4.2887825,
              55.8719068
            ],
            [
              -4.2887787,
              55.8719159
            ],
            [
              -4.2887589,
              55.8719133
            ],
            [
              -4.2887629,
              55.8719036
            ],
            [
              -4.2886954,
              55.8718948
            ],
            [
              -4.2886912,
              55.8719048
            ],
            [
              -4.2886703,
              55.8719021
            ],
            [
              -4.2886747,
              55.8718915
            ],
            [
              -4.2886068,
              55.8718827
            ],
            [
              -4.2886028,
              55.8718923
            ],
            [
              -4.288581,
              55.8718895
            ],
            [
              -4.2885853,
              55.8718779
            ],
            [
              -4.288552,
              55.8718738
            ],
            [
              -4.2885501,
              55.8718793
            ],
            [
              -4.28853,
              55.8718772
            ],
            [
              -4.2885321,
              55.871871
            ],
            [
              -4.2885215,
              55.8718696
            ],
            [
              -4.288512,
              55.8718683
            ],
            [
              -4.2885095,
              55.8718743
            ],
            [
              -4.2884863,
              55.8718715
            ],
            [
              -4.2884893,
              55.8718648
            ],
            [
              -4.2884608,
              55.871861
            ],
            [
              -4.2884495,
              55.8718907
            ],
            [
              -4.2884108,
              55.8718869
            ],
            [
              -4.2884131,
              55.8718903
            ],
            [
              -4.2884128,
              55.8718943
            ],
            [
              -4.2884102,
              55.8718972
            ],
            [
              -4.2884056,
              55.871899
            ],
            [
              -4.2884001,
              55.8718994
            ],
            [
              -4.2883773,
              55.8719145
            ],
            [
              -4.288379,
              55.8719172
            ],
            [
              -4.2883782,
              55.8719203
            ],
            [
              -4.2883741,
              55.8719231
            ],
            [
              -4.2883694,
              55.8719237
            ],
            [
              -4.2883636,
              55.8719228
            ],
            [
              -4.2883597,
              55.8719211
            ],
            [
              -4.2883511,
              55.8719243
            ],
            [
              -4.2883437,
              55.8719263
            ],
            [
              -4.2883352,
              55.8719283
            ],
            [
              -4.2883279,
              55.8719295
            ],
            [
              -4.2883274,
              55.8719326
            ],
            [
              -4.2883248,
              55.8719356
            ],
            [
              -4.2883197,
              55.8719372
            ],
            [
              -4.2883143,
              55.8719364
            ],
            [
              -4.2883103,
              55.8719331
            ],
            [
              -4.2883032,
              55.8719329
            ],
            [
              -4.2882933,
              55.8719323
            ],
            [
              -4.2882833,
              55.8719312
            ],
            [
              -4.2882725,
              55.8719292
            ],
            [
              -4.288267,
              55.8719309
            ],
            [
              -4.2882623,
              55.8719314
            ],
            [
              -4.2882581,
              55.8719306
            ],
            [
              -4.2882556,
              55.8719283
            ],
            [
              -4.2882557,
              55.8719251
            ],
            [
              -4.2882563,
              55.8719205
            ],
            [
              -4.2882486,
              55.8719165
            ],
            [
              -4.2882413,
              55.8719119
            ],
            [
              -4.2882346,
              55.8719068
            ],
            [
              -4.2882309,
              55.8719028
            ],
            [
              -4.2882262,
              55.8719031
            ],
            [
              -4.2882211,
              55.8719026
            ],
            [
              -4.2882176,
              55.8719004
            ],
            [
              -4.2882166,
              55.8718974
            ],
            [
              -4.2882175,
              55.8718942
            ],
            [
              -4.2882204,
              55.8718925
            ],
            [
              -4.2882181,
              55.8718861
            ],
            [
              -4.2882172,
              55.8718799
            ],
            [
              -4.2882164,
              55.8718719
            ],
            [
              -4.2882123,
              55.8718717
            ],
            [
              -4.2882076,
              55.8718707
            ],
            [
              -4.2882041,
              55.8718691
            ],
            [
              -4.2882036,
              55.8718663
            ],
            [
              -4.2882061,
              55.8718639
            ],
            [
              -4.2882081,
              55.8718619
            ],
            [
              -4.288212,
              55.8718601
            ],
            [
              -4.2881731,
              55.8718548
            ],
            [
              -4.288186,
              55.8718233
            ],
            [
              -4.2881631,
              55.8718208
            ],
            [
              -4.2881604,
              55.8718276
            ],
            [
              -4.2881364,
              55.8718245
            ],
            [
              -4.2881388,
              55.8718173
            ],
            [
              -4.2881246,
              55.8718155
            ],
            [
              -4.2881064,
              55.8718132
            ],
            [
              -4.2881042,
              55.8718198
            ],
            [
              -4.2880794,
              55.8718164
            ],
            [
              -4.288082,
              55.87181
            ],
            [
              -4.2880597,
              55.8718076
            ],
            [
              -4.2880555,
              55.8718179
            ],
            [
              -4.2880296,
              55.8718146
            ],
            [
              -4.2880339,
              55.871804
            ],
            [
              -4.2879632,
              55.8717949
            ],
            [
              -4.2879592,
              55.8718047
            ],
            [
              -4.2879381,
              55.8718019
            ],
            [
              -4.2879422,
              55.871792
            ],
            [
              -4.2878805,
              55.8717841
            ],
            [
              -4.2878768,
              55.8717932
            ],
            [
              -4.2878539,
              55.8717902
            ],
            [
              -4.2878579,
              55.8717804
            ],
            [
              -4.2877913,
              55.8717718
            ],
            [
              -4.2877877,
              55.8717808
            ],
            [
              -4.2877665,
              55.871778
            ],
            [
              -4.2877704,
              55.8717684
            ],
            [
              -4.2877067,
              55.8717602
            ],
            [
              -4.2877025,
              55.8717705
            ],
            [
              -4.2876789,
              55.8717675
            ],
            [
              -4.2876835,
              55.8717564
            ],
            [
              -4.2876206,
              55.8717483
            ],
            [
              -4.2876163,
              55.8717587
            ],
            [
              -4.287592,
              55.8717555
            ],
            [
              -4.2875965,
              55.8717445
            ],
            [
              -4.2875336,
              55.8717364
            ],
            [
              -4.2875294,
              55.8717468
            ],
            [
              -4.287509,
              55.8717442
            ],
            [
              -4.2875133,
              55.8717339
            ],
            [
              -4.2874478,
              55.8717254
            ],
            [
              -4.2874437,
              55.8717354
            ],
            [
              -4.2874226,
              55.8717327
            ],
            [
              -4.2874271,
              55.8717218
            ],
            [
              -4.2874048,
              55.871719
            ],
            [
              -4.2874102,
              55.8717059
            ],
            [
              -4.2874291,
              55.8717083
            ],
            [
              -4.2874387,
              55.8716848
            ],
            [
              -4.287322,
              55.8716698
            ],
            [
              -4.2873182,
              55.8716787
            ],
            [
              -4.2873037,
              55.871677
            ],
            [
              -4.2872989,
              55.8716879
            ],
            [
              -4.2872766,
              55.8716854
            ],
            [
              -4.2872807,
              55.8716735
            ],
            [
              -4.2871969,
              55.8716637
            ],
            [
              -4.287193,
              55.8716736
            ],
            [
              -4.2871755,
              55.8716714
            ],
            [
              -4.2871795,
              55.8716617
            ],
            [
              -4.2871032,
              55.8716519
            ],
            [
              -4.2870997,
              55.8716607
            ],
            [
              -4.2870736,
              55.8716574
            ],
            [
              -4.2870779,
              55.8716466
            ],
            [
              -4.2870642,
              55.8716449
            ],
            [
              -4.287069,
              55.871633
            ],
            [
              -4.2870833,
              55.8716348
            ],
            [
              -4.287094,
              55.8716082
            ],
            [
              -4.2870812,
              55.8716066
            ],
            [
              -4.2870858,
              55.871595
            ],
            [
              -4.2870984,
              55.8715966
            ],
            [
              -4.2871083,
              55.871572
            ],
            [
              -4.2870948,
              55.8715703
            ],
            [
              -4.2871002,
              55.8715569
            ],
            [
              -4.2871132,
              55.8715585
            ],
            [
              -4.2871228,
              55.8715346
            ],
            [
              -4.2871098,
              55.871533
            ],
            [
              -4.2871153,
              55.8715193
            ],
            [
              -4.2871412,
              55.8715222
            ],
            [
              -4.2872726,
              55.8712004
            ],
            [
              -4.2873297,
              55.8710579
            ],
            [
              -4.287319,
              55.8710563
            ],
            [
              -4.2873292,
              55.8710533
            ],
            [
              -4.2873378,
              55.8710491
            ],
            [
              -4.2873448,
              55.8710406
            ],
            [
              -4.2873456,
              55.8710317
            ],
            [
              -4.287344,
              55.8710269
            ],
            [
              -4.2873359,
              55.8710182
            ],
            [
              -4.2873458,
              55.8709902
            ],
            [
              -4.2873291,
              55.8709881
            ],
            [
              -4.2873334,
              55.8709765
            ],
            [
              -4.2873512,
              55.870978
            ],
            [
              -4.2873616,
              55.870952
            ],
            [
              -4.2873448,
              55.8709503
            ],
            [
              -4.2873492,
              55.8709366
            ],
            [
              -4.2873673,
              55.8709385
            ],
            [
              -4.2873777,
              55.8709135
            ],
            [
              -4.2873586,
              55.8709108
            ],
            [
              -4.2873629,
              55.870899
            ],
            [
              -4.2873824,
              55.8709012
            ],
            [
              -4.2873854,
              55.8708931
            ],
            [
              -4.2874096,
              55.8708956
            ],
            [
              -4.2874062,
              55.8709048
            ],
            [
              -4.2874856,
              55.8709153
            ],
            [
              -4.287489,
              55.8709061
            ],
            [
              -4.2875128,
              55.8709086
            ],
            [
              -4.2875088,
              55.8709185
            ],
            [
              -4.2875851,
              55.8709294
            ],
            [
              -4.2875913,
              55.8709185
            ],
            [
              -4.2876114,
              55.8709214
            ],
            [
              -4.2876077,
              55.8709321
            ],
            [
              -4.2876176,
              55.8709335
            ],
            [
              -4.2876141,
              55.870942
            ],
            [
              -4.2876559,
              55.8709473
            ],
            [
              -4.2876593,
              55.8709398
            ],
            [
              -4.2876916,
              55.8709439
            ],
            [
              -4.2876896,
              55.8709523
            ],
            [
              -4.2878581,
              55.8709751
            ],
            [
              -4.287862,
              55.8709668
            ],
            [
              -4.2878804,
              55.8709694
            ],
            [
              -4.2878776,
              55.8709774
            ],
            [
              -4.2879178,
              55.8709831
            ],
            [
              -4.2879208,
              55.870975
            ],
            [
              -4.2879406,
              55.8709774
            ],
            [
              -4.2879441,
              55.870966
            ],
            [
              -4.2879611,
              55.8709683
            ],
            [
              -4.2879587,
              55.8709756
            ],
            [
              -4.2879778,
              55.8709775
            ],
            [
              -4.2879765,
              55.8709825
            ],
            [
              -4.2880031,
              55.870986
            ],
            [
              -4.2880284,
              55.8709894
            ],
            [
              -4.2880303,
              55.8709844
            ],
            [
              -4.2880452,
              55.8709859
            ],
            [
              -4.2880476,
              55.8709783
            ],
            [
              -4.2880617,
              55.87098
            ],
            [
              -4.2880595,
              55.8709879
            ],
            [
              -4.2880675,
              55.8709885
            ],
            [
              -4.288066,
              55.8709934
            ],
            [
              -4.2880752,
              55.8709943
            ],
            [
              -4.2880717,
              55.8710045
            ],
            [
              -4.2881149,
              55.8710108
            ],
            [
              -4.2881183,
              55.8710006
            ],
            [
              -4.2881383,
              55.8710026
            ],
            [
              -4.2881352,
              55.8710126
            ],
            [
              -4.2881681,
              55.8710169
            ],
            [
              -4.2881716,
              55.8710076
            ],
            [
              -4.2881899,
              55.8710101
            ],
            [
              -4.2881864,
              55.8710192
            ],
            [
              -4.2882268,
              55.8710245
            ],
            [
              -4.2882306,
              55.8710164
            ],
            [
              -4.2882466,
              55.8710187
            ],
            [
              -4.2882432,
              55.8710273
            ],
            [
              -4.2882793,
              55.8710321
            ],
            [
              -4.2882832,
              55.8710243
            ],
            [
              -4.2883003,
              55.8710269
            ],
            [
              -4.288297,
              55.8710344
            ],
            [
              -4.2883382,
              55.8710396
            ],
            [
              -4.2883421,
              55.8710311
            ],
            [
              -4.2883571,
              55.8710331
            ],
            [
              -4.2883544,
              55.8710424
            ],
            [
              -4.288394,
              55.8710473
            ],
            [
              -4.2883969,
              55.8710378
            ],
            [
              -4.2883872,
              55.8710311
            ],
            [
              -4.2884006,
              55.871024
            ],
            [
              -4.2884113,
              55.8710297
            ],
            [
              -4.2884696,
              55.8710378
            ],
            [
              -4.2884729,
              55.8710298
            ],
            [
              -4.2884947,
              55.8710334
            ],
            [
              -4.2884913,
              55.8710405
            ],
            [
              -4.2885664,
              55.8710514
            ],
            [
              -4.2885745,
              55.8710327
            ],
            [
              -4.2886581,
              55.8710442
            ],
            [
              -4.2887456,
              55.8710562
            ],
            [
              -4.2887381,
              55.8710734
            ],
            [
              -4.2888031,
              55.8710831
            ],
            [
              -4.2888063,
              55.8710748
            ],
            [
              -4.2888281,
              55.8710778
            ],
            [
              -4.2888242,
              55.8710862
            ],
            [
              -4.2888886,
              55.8710946
            ],
            [
              -4.2889074,
              55.8710903
            ],
            [
              -4.2889151,
              55.8710993
            ],
            [
              -4.2888951,
              55.8711047
            ],
            [
              -4.2888903,
              55.8711137
            ],
            [
              -4.2889673,
              55.8711243
            ],
            [
              -4.2889709,
              55.871116
            ],
            [
              -4.2889926,
              55.871119
            ],
            [
              -4.2889891,
              55.8711271
            ],
            [
              -4.2891284,
              55.8711462
            ],
            [
              -4.2891323,
              55.8711372
            ],
            [
              -4.2891507,
              55.8711397
            ],
            [
              -4.2891468,
              55.8711486
            ],
            [
              -4.289211,
              55.8711574
            ],
            [
              -4.2892152,
              55.8711477
            ],
            [
              -4.2892347,
              55.8711504
            ],
            [
              -4.2892389,
              55.8711407
            ],
            [
              -4.2892574,
              55.8711433
            ],
            [
              -4.289255,
              55.8711486
            ],
            [
              -4.2892794,
              55.871152
            ],
            [
              -4.2892774,
              55.8711566
            ],
            [
              -4.2892982,
              55.8711594
            ],
            [
              -4.2893183,
              55.8711622
            ],
            [
              -4.2893203,
              55.8711576
            ],
            [
              -4.2893406,
              55.8711604
            ],
            [
              -4.2893432,
              55.8711546
            ],
            [
              -4.2893621,
              55.8711572
            ],
            [
              -4.2893579,
              55.8711669
            ],
            [
              -4.2893755,
              55.8711693
            ],
            [
              -4.2893716,
              55.8711783
            ],
            [
              -4.2894139,
              55.8711841
            ],
            [
              -4.2894175,
              55.8711758
            ],
            [
              -4.2894337,
              55.871178
            ],
            [
              -4.28943,
              55.8711866
            ],
            [
              -4.2894745,
              55.8711927
            ],
            [
              -4.2894786,
              55.8711834
            ],
            [
              -4.2894989,
              55.8711862
            ],
            [
              -4.2894948,
              55.8711957
            ],
            [
              -4.2895378,
              55.8712016
            ],
            [
              -4.2895418,
              55.8711924
            ],
            [
              -4.2895617,
              55.8711952
            ],
            [
              -4.2895578,
              55.8712042
            ],
            [
              -4.2896004,
              55.87121
            ],
            [
              -4.2896042,
              55.8712012
            ],
            [
              -4.2896219,
              55.8712036
            ],
            [
              -4.2896179,
              55.8712127
            ],
            [
              -4.2896644,
              55.8712191
            ],
            [
              -4.2896677,
              55.8712116
            ],
            [
              -4.289688,
              55.8712144
            ],
            [
              -4.2896921,
              55.8712022
            ],
            [
              -4.2897085,
              55.8712043
            ],
            [
              -4.289741,
              55.8711889
            ],
            [
              -4.2897819,
              55.8711941
            ],
            [
              -4.2898034,
              55.871214
            ],
            [
              -4.2898014,
              55.8712208
            ],
            [
              -4.2898097,
              55.8712219
            ],
            [
              -4.2898068,
              55.8712296
            ],
            [
              -4.2898919,
              55.8712417
            ],
            [
              -4.2898973,
              55.8712288
            ],
            [
              -4.2899184,
              55.8712323
            ],
            [
              -4.2899144,
              55.8712445
            ],
            [
              -4.2899268,
              55.8712461
            ],
            [
              -4.2899219,
              55.8712584
            ],
            [
              -4.2899066,
              55.8712564
            ],
            [
              -4.289897,
              55.8712792
            ],
            [
              -4.2899114,
              55.8712809
            ],
            [
              -4.289907,
              55.8712934
            ],
            [
              -4.2898902,
              55.8712914
            ],
            [
              -4.2898805,
              55.8713172
            ],
            [
              -4.2898952,
              55.8713189
            ],
            [
              -4.2898905,
              55.8713293
            ],
            [
              -4.2898771,
              55.8713278
            ],
            [
              -4.2898641,
              55.871358
            ],
            [
              -4.2898782,
              55.8713595
            ],
            [
              -4.2898735,
              55.8713681
            ],
            [
              -4.2898604,
              55.8713666
            ],
            [
              -4.2898525,
              55.8713874
            ],
            [
              -4.2898685,
              55.8713898
            ],
            [
              -4.2898635,
              55.8714019
            ],
            [
              -4.2898293,
              55.8713984
            ],
            [
              -4.2898159,
              55.8714288
            ],
            [
              -4.2898487,
              55.8714327
            ],
            [
              -4.2898437,
              55.8714461
            ],
            [
              -4.2898103,
              55.8714418
            ],
            [
              -4.2897972,
              55.871472
            ],
            [
              -4.2898311,
              55.871476
            ],
            [
              -4.2898239,
              55.8714917
            ],
            [
              -4.2897905,
              55.8714876
            ],
            [
              -4.2897777,
              55.8715189
            ],
            [
              -4.2897677,
              55.8715432
            ],
            [
              -4.2897631,
              55.8715544
            ],
            [
              -4.2897588,
              55.8715645
            ],
            [
              -4.2898423,
              55.8715757
            ],
            [
              -4.2898444,
              55.8715708
            ],
            [
              -4.2898837,
              55.8715761
            ],
            [
              -4.2898817,
              55.8715809
            ],
            [
              -4.2899027,
              55.8715838
            ],
            [
              -4.289898,
              55.8715949
            ],
            [
              -4.2898755,
              55.8715919
            ],
            [
              -4.289863,
              55.8716214
            ],
            [
              -4.2899029,
              55.8716267
            ],
            [
              -4.2898979,
              55.8716385
            ],
            [
              -4.2898557,
              55.8716329
            ],
            [
              -4.2898418,
              55.8716654
            ],
            [
              -4.2898667,
              55.8716688
            ],
            [
              -4.2898622,
              55.8716793
            ],
            [
              -4.2898432,
              55.8716768
            ],
            [
              -4.2898406,
              55.871683
            ],
            [
              -4.2897978,
              55.8716773
            ],
            [
              -4.2898003,
              55.8716715
            ],
            [
              -4.2897196,
              55.8716607
            ],
            [
              -4.2897186,
              55.8716655
            ],
            [
              -4.2897114,
              55.871683
            ],
            [
              -4.2897023,
              55.8717049
            ],
            [
              -4.289694,
              55.8717236
            ],
            [
              -4.2896901,
              55.8717341
            ],
            [
              -4.2897231,
              55.8717384
            ],
            [
              -4.2897173,
              55.8717524
            ],
            [
              -4.2896857,
              55.8717483
            ],
            [
              -4.2896728,
              55.8717792
            ],
            [
              -4.2897038,
              55.8717832
            ],
            [
              -4.2896982,
              55.8717965
            ],
            [
              -4.2896662,
              55.8717923
            ],
            [
              -4.2896534,
              55.8718231
            ],
            [
              -4.2896854,
              55.8718273
            ],
            [
              -4.2896808,
              55.8718384
            ],
            [
              -4.2896672,
              55.8718364
            ],
            [
              -4.2896598,
              55.8718543
            ],
            [
              -4.2896647,
              55.8718549
            ],
            [
              -4.2896619,
              55.8718617
            ],
            [
              -4.2896701,
              55.8718627
            ],
            [
              -4.2896648,
              55.8718758
            ],
            [
              -4.2896496,
              55.8718738
            ],
            [
              -4.2896394,
              55.8718989
            ],
            [
              -4.2896544,
              55.8719008
            ],
            [
              -4.2896486,
              55.8719148
            ],
            [
              -4.2896316,
              55.8719127
            ],
            [
              -4.2896215,
              55.8719373
            ],
            [
              -4.2896369,
              55.8719392
            ],
            [
              -4.2896325,
              55.87195
            ],
            [
              -4.2896156,
              55.8719478
            ],
            [
              -4.2896045,
              55.8719749
            ],
            [
              -4.2896196,
              55.8719768
            ],
            [
              -4.2896147,
              55.8719889
            ],
            [
              -4.2896028,
              55.8719874
            ],
            [
              -4.2895984,
              55.8719979
            ]
          ]
        ]
      },
      "properties": {
        "kind": "building",
        "dest_id": "main_building",
        "name": "Main Building",
        "ring": 0,
        "osm": "relation/11951"
      }
    },
    {
      "type": "Feature",
      "geometry": {
        "type": "Polygon",
        "coordinates": [
          [
            [
              -4.2892063,
              55.8737689
            ],
            [
              -4.2891128,
              55.8737589
            ],
            [
              -4.2890672,
              55.8738956
            ],
            [
              -4.2887186,
              55.8738531
            ],
            [
              -4.2887637,
              55.8737222
            ],
            [
              -4.288647,
              55.8737124
            ],
            [
              -4.2886309,
              55.873706
            ],
            [
              -4.2886244,
              55.8736933
            ],
            [
              -4.2886336,
              55.8736804
            ],
            [
              -4.288653,
              55.8736718
            ],
            [
              -4.2886946,
              55.8736744
            ],
            [
              -4.2887744,
              55.8736857
            ],
            [
              -4.2887865,
              55.8736488
            ],
            [
              -4.288763,
              55.873627
            ],
            [
              -4.2886738,
              55.8736184
            ],
            [
              -4.2886624,
              55.8736033
            ],
            [
              -4.2887019,
              55.8734874
            ],
            [
              -4.288424,
              55.8734506
            ],
            [
              -4.2884562,
              55.8733777
            ],
            [
              -4.2883852,
              55.8733702
            ],
            [
              -4.2884157,
              55.8733336
            ],
            [
              -4.2884824,
              55.8732487
            ],
            [
              -4.2885728,
              55.8732606
            ],
            [
              -4.2886135,
              55.8731604
            ],
            [
              -4.2886644,
              55.8731677
            ],
            [
              -4.288712,
              55.873054
            ],
            [
              -4.2887503,
              55.8730597
            ],
            [
              -4.2887892,
              55.8730657
            ],
            [
              -4.2887932,
              55.8730511
            ],
            [
              -4.2887824,
              55.8730375
            ],
            [
              -4.2887858,
              55.8730255
            ],
            [
              -4.2888006,
              55.8730127
            ],
            [
              -4.2888089,
              55.8730074
            ],
            [
              -4.2888347,
              55.872942
            ],
            [
              -4.2888106,
              55.8729386
            ],
            [
              -4.2888369,
              55.8728718
            ],
            [
              -4.2889909,
              55.8728925
            ],
            [
              -4.2889702,
              55.8729413
            ],
            [
              -4.2890802,
              55.8729559
            ],
            [
              -4.2890943,
              55.872922
            ],
            [
              -4.2892029,
              55.8729367
            ],
            [
              -4.2891908,
              55.8729649
            ],
            [
              -4.2893055,
              55.8729807
            ],
            [
              -4.2893088,
              55.8729713
            ],
            [
              -4.2894195,
              55.872986
            ],
            [
              -4.2894141,
              55.8729973
            ],
            [
              -4.2895234,
              55.8730112
            ],
            [
              -4.2895203,
              55.873019
            ],
            [
              -4.2897078,
              55.8730417
            ],
            [
              -4.2896984,
              55.8730627
            ],
            [
              -4.2897936,
              55.8730736
            ],
            [
              -4.2898176,
              55.8730941
            ],
            [
              -4.2897749,
              55.8731899
            ],
            [
              -4.2897575,
              55.8731959
            ],
            [
              -4.28968,
              55.8731861
            ],
            [
              -4.2895536,
              55.8735285
            ],
            [
              -4.2896296,
              55.8735401
            ],
            [
              -4.2896139,
              55.8735777
            ],
            [
              -4.2895328,
              55.8735657
            ],
            [
              -4.2895026,
              55.8736379
            ],
            [
              -4.2893088,
              55.8736127
            ],
            [
              -4.2893149,
              55.8735943
            ],
            [
              -4.2892833,
              55.8735902
            ],
            [
              -4.2892485,
              55.8736812
            ],
            [
              -4.2891459,
              55.8736688
            ],
            [
              -4.2891231,
              55.873726
            ],
            [
              -4.2892404,
              55.8737384
            ],
            [
              -4.2892532,
              55.87375
            ],
            [
              -4.2892465,
              55.8737655
            ],
            [
              -4.2892297,
              55.8737704
            ],
            [
              -4.2892063,
              55.8737689
            ]
          ]
        ]
      },
      "properties": {
        "kind": "building",
        "dest_id": "university_library",
        "name": "University Library",
        "ring": 0,
        "osm": "way/32660759"
      }
    },
    {
      "type": "Feature",
      "geometry": {
        "type": "Polygon",
        "coordinates": [
          [
            [
              -4.2872877,
              55.8707563
            ],
            [
              -4.2872095,
              55.8709411
            ],
            [
              -4.2871078,
              55.8711285
            ],
            [
              -4.2868476,
              55.8710861
            ],
            [
              -4.2869247,
              55.8710256
            ],
            [
              -4.286743,
              55.8710003
            ],
            [
              -4.2866703,
              55.8711769
            ],
            [
              -4.2866308,
              55.8712727
            ],
            [
              -4.286612,
              55.8713144
            ],
            [
              -4.2864887,
              55.8715961
            ],
            [
              -4.2864746,
              55.8716327
            ],
            [
              -4.2864,
              55.8718269
            ],
            [
              -4.2859786,
              55.8717688
            ],
            [
              -4.2859829,
              55.8717539
            ],
            [
              -4.2860051,
              55.8717562
            ],
            [
              -4.2860299,
              55.8716967
            ],
            [
              -4.2860158,
              55.8716877
            ],
            [
              -4.2860158,
              55.8716764
            ],
            [
              -4.2860278,
              55.871664
            ],
            [
              -4.2860641,
              55.8716591
            ],
            [
              -4.2860993,
              55.8715736
            ],
            [
              -4.2861553,
              55.8715794
            ],
            [
              -4.2861646,
              55.8715549
            ],
            [
              -4.2861845,
              55.8715562
            ],
            [
              -4.2863085,
              55.8712738
            ],
            [
              -4.2862606,
              55.871267
            ],
            [
              -4.2863004,
              55.8712286
            ],
            [
              -4.2861935,
              55.8712091
            ],
            [
              -4.2864424,
              55.8709534
            ],
            [
              -4.2864622,
              55.8709196
            ],
            [
              -4.286512,
              55.8709198
            ],
            [
              -4.2865447,
              55.8708498
            ],
            [
              -4.2868472,
              55.8708953
            ],
            [
              -4.2869249,
              55.8709037
            ],
            [
              -4.2870084,
              55.8707228
            ],
            [
              -4.2872877,
              55.8707563
            ]
          ]
        ]
      },
      "properties": {
        "kind": "building",
        "dest_id": "james_watt_south",
        "name": "James Watt Building (South)",
        "ring": 0,
        "osm": "way/182180587"
      }
    },
    {
      "type": "Feature",
      "geometry": {
        "type": "Point",
        "coordinates": [
          -4.288628725458714,
          55.87151404541284
        ]
      },
      "properties": {
        "kind": "destination",
        "dest_id": "main_building",
        "name": "Main Building",
        "osm": "relation/11951",
        "inside_of": ""
      }
    },
    {
      "type": "Feature",
      "geometry": {
        "type": "Point",
        "coordinates": [
          -4.2883349,
          55.8717786
        ]
      },
      "properties": {
        "kind": "destination",
        "dest_id": "hunterian_museum",
        "name": "Hunterian Museum",
        "osm": "node/600576868",
        "inside_of": "main_building"
      }
    },
    {
      "type": "Feature",
      "geometry": {
        "type": "Point",
        "coordinates": [
          -4.289049530985915,
          55.87335467887324
        ]
      },
      "properties": {
        "kind": "destination",
        "dest_id": "university_library",
        "name": "University Library",
        "osm": "way/32660759",
        "inside_of": ""
      }
    },
    {
      "type": "Feature",
      "geometry": {
        "type": "Point",
        "coordinates": [
          -4.2864781361111115,
          55.87129399166667
        ]
      },
      "properties": {
        "kind": "destination",
        "dest_id": "james_watt_south",
        "name": "James Watt Building (South)",
        "osm": "way/182180587",
        "inside_of": ""
      }
    },
    {
      "type": "Feature",
      "geometry": {
        "type": "Point",
        "coordinates": [
          -4.2880031,
          55.870986
        ]
      },
      "properties": {
        "kind": "entrance",
        "dest_id": "main_building",
        "osm_node_id": 4374873296,
        "entrance": "yes",
        "wheelchair": "",
        "level": "1",
        "osm_hint": "entrance=yes; level=1",
        "off_outline": ""
      }
    },
    {
      "type": "Feature",
      "geometry": {
        "type": "Point",
        "coordinates": [
          -4.2897114,
          55.871683
        ]
      },
      "properties": {
        "kind": "entrance",
        "dest_id": "main_building",
        "osm_node_id": 4374873349,
        "entrance": "yes",
        "wheelchair": "",
        "level": "1",
        "osm_hint": "entrance=yes; level=1",
        "off_outline": ""
      }
    },
    {
      "type": "Feature",
      "geometry": {
        "type": "Point",
        "coordinates": [
          -4.2885215,
          55.8718696
        ]
      },
      "properties": {
        "kind": "entrance",
        "dest_id": "main_building",
        "osm_node_id": 4374873352,
        "entrance": "yes",
        "wheelchair": "",
        "level": "0",
        "osm_hint": "entrance=yes; level=0",
        "off_outline": ""
      }
    },
    {
      "type": "Feature",
      "geometry": {
        "type": "Point",
        "coordinates": [
          -4.2893124,
          55.8719309
        ]
      },
      "properties": {
        "kind": "entrance",
        "dest_id": "main_building",
        "osm_node_id": 4374873355,
        "entrance": "yes",
        "wheelchair": "",
        "level": "0",
        "osm_hint": "entrance=yes; level=0",
        "off_outline": ""
      }
    },
    {
      "type": "Feature",
      "geometry": {
        "type": "Point",
        "coordinates": [
          -4.2868472,
          55.8708953
        ]
      },
      "properties": {
        "kind": "entrance",
        "dest_id": "james_watt_south",
        "osm_node_id": 5171378847,
        "entrance": "yes",
        "wheelchair": "",
        "level": "",
        "osm_hint": "entrance=yes",
        "off_outline": ""
      }
    },
    {
      "type": "Feature",
      "geometry": {
        "type": "Point",
        "coordinates": [
          -4.2886581,
          55.8710442
        ]
      },
      "properties": {
        "kind": "entrance",
        "dest_id": "main_building",
        "osm_node_id": 5179610537,
        "entrance": "yes",
        "wheelchair": "",
        "level": "1",
        "osm_hint": "entrance=yes; level=1",
        "off_outline": ""
      }
    },
    {
      "type": "Feature",
      "geometry": {
        "type": "Point",
        "coordinates": [
          -4.2892982,
          55.8711594
        ]
      },
      "properties": {
        "kind": "entrance",
        "dest_id": "main_building",
        "osm_node_id": 5179610553,
        "entrance": "yes",
        "wheelchair": "",
        "level": "1",
        "osm_hint": "entrance=yes; level=1",
        "off_outline": ""
      }
    },
    {
      "type": "Feature",
      "geometry": {
        "type": "Point",
        "coordinates": [
          -4.2887503,
          55.8730597
        ]
      },
      "properties": {
        "kind": "entrance",
        "dest_id": "university_library",
        "osm_node_id": 7993589849,
        "entrance": "yes",
        "wheelchair": "",
        "level": "",
        "osm_hint": "entrance=yes",
        "off_outline": ""
      }
    },
    {
      "type": "Feature",
      "geometry": {
        "type": "Point",
        "coordinates": [
          -4.2884157,
          55.8733336
        ]
      },
      "properties": {
        "kind": "entrance",
        "dest_id": "university_library",
        "osm_node_id": 7993589850,
        "entrance": "yes",
        "wheelchair": "",
        "level": "",
        "osm_hint": "entrance=yes",
        "off_outline": ""
      }
    },
    {
      "type": "Feature",
      "geometry": {
        "type": "Point",
        "coordinates": [
          -4.289694,
          55.8717236
        ]
      },
      "properties": {
        "kind": "entrance",
        "dest_id": "main_building",
        "osm_node_id": 11938383690,
        "entrance": "yes",
        "wheelchair": "",
        "level": "0",
        "osm_hint": "entrance=yes; level=0; note=Entrace is simplified, it is actually tucked under the staircase.",
        "off_outline": ""
      }
    },
    {
      "type": "Feature",
      "geometry": {
        "type": "Point",
        "coordinates": [
          -4.2897677,
          55.8715432
        ]
      },
      "properties": {
        "kind": "entrance",
        "dest_id": "main_building",
        "osm_node_id": 11938383691,
        "entrance": "yes",
        "wheelchair": "",
        "level": "1",
        "osm_hint": "entrance=yes; level=1",
        "off_outline": ""
      }
    },
    {
      "type": "Feature",
      "geometry": {
        "type": "Point",
        "coordinates": [
          -4.2881246,
          55.8718155
        ]
      },
      "properties": {
        "kind": "entrance",
        "dest_id": "main_building",
        "osm_node_id": 11938383718,
        "entrance": "yes",
        "wheelchair": "",
        "level": "0",
        "osm_hint": "entrance=yes; level=0",
        "off_outline": ""
      }
    },
    {
      "type": "Feature",
      "geometry": {
        "type": "Point",
        "coordinates": [
          -4.2882608,
          55.8732783
        ]
      },
      "properties": {
        "kind": "entrance",
        "dest_id": "university_library",
        "osm_node_id": 7993589854,
        "entrance": "yes",
        "wheelchair": "",
        "level": "",
        "osm_hint": "entrance=yes",
        "off_outline": "yes"
      }
    },
    {
      "type": "Feature",
      "geometry": {
        "type": "Point",
        "coordinates": [
          -4.2883143,
          55.8730868
        ]
      },
      "properties": {
        "kind": "entrance",
        "dest_id": "university_library",
        "osm_node_id": 7993589855,
        "entrance": "yes",
        "wheelchair": "",
        "level": "",
        "osm_hint": "entrance=yes",
        "off_outline": "yes"
      }
    },
    {
      "type": "Feature",
      "geometry": {
        "type": "Point",
        "coordinates": [
          -4.2893433,
          55.8718346
        ]
      },
      "properties": {
        "kind": "entrance",
        "dest_id": "main_building",
        "osm_node_id": 7993590301,
        "entrance": "yes",
        "wheelchair": "",
        "level": "1",
        "osm_hint": "entrance=yes; level=1",
        "off_outline": "yes"
      }
    },
    {
      "type": "Feature",
      "geometry": {
        "type": "Point",
        "coordinates": [
          -4.2884281,
          55.871605
        ]
      },
      "properties": {
        "kind": "entrance",
        "dest_id": "main_building",
        "osm_node_id": 11938383694,
        "entrance": "yes",
        "wheelchair": "",
        "level": "1",
        "osm_hint": "entrance=yes; level=1",
        "off_outline": "yes"
      }
    },
    {
      "type": "Feature",
      "geometry": {
        "type": "Point",
        "coordinates": [
          -4.2885579,
          55.8712861
        ]
      },
      "properties": {
        "kind": "entrance",
        "dest_id": "main_building",
        "osm_node_id": 11938383695,
        "entrance": "yes",
        "wheelchair": "",
        "level": "1",
        "osm_hint": "entrance=yes; level=1",
        "off_outline": "yes"
      }
    },
    {
      "type": "Feature",
      "geometry": {
        "type": "Point",
        "coordinates": [
          -4.2892459,
          55.8712729
        ]
      },
      "properties": {
        "kind": "entrance",
        "dest_id": "main_building",
        "osm_node_id": 11938383697,
        "entrance": "yes",
        "wheelchair": "",
        "level": "1",
        "osm_hint": "entrance=yes; level=1",
        "off_outline": "yes"
      }
    },
    {
      "type": "Feature",
      "geometry": {
        "type": "Point",
        "coordinates": [
          -4.2881853,
          55.8716714
        ]
      },
      "properties": {
        "kind": "entrance",
        "dest_id": "hunterian_museum",
        "osm_node_id": 11938383704,
        "entrance": "yes",
        "wheelchair": "no",
        "level": "1",
        "osm_hint": "access=yes; entrance=yes; level=1; wheelchair=no",
        "off_outline": "yes"
      }
    },
    {
      "type": "Feature",
      "geometry": {
        "type": "Point",
        "coordinates": [
          -4.2885789,
          55.8717241
        ]
      },
      "properties": {
        "kind": "entrance",
        "dest_id": "hunterian_museum",
        "osm_node_id": 11938383713,
        "entrance": "yes",
        "wheelchair": "no",
        "level": "1",
        "osm_hint": "access=yes; entrance=yes; level=1; wheelchair=no",
        "off_outline": "yes"
      }
    }
  ]
}